NORAD_CAT_ID,OBJECT_NAME,OBJECT_TYPE,EPOCH,MEAN_MOTION,ECCENTRICITY,INCLINATION,RA_OF_ASC_NODE,ARG_OF_PERICENTER,MEAN_ANOMALY,BSTAR,MEAN_MOTION_DOT,MEAN_MOTION_DDOT,TLE_LINE0,TLE_LINE1,TLE_LINE2,SEMIMAJOR_AXIS,PERIOD,APOGEE,PERIGEE,DECAYED
51116.0,STARLINK-3243,PAYLOAD,2023-05-18 21:34:24,15.08836665,0.0001039,53.216,214.045,94.4599,265.6512,2.0986e-05,4.6e-07,0.0,0 STARLINK-3243,1 51116U 22005N   23138.89889267  .00000046  00000-0  20986-4 0  9996,2 51116  53.2160 214.0450 0001039  94.4599 265.6512 15.08836665 74019,6917.891,95.438,540.474,539.037,0.0
51116.0,STARLINK-3243,PAYLOAD,2023-05-19 21:25:11,15.08840958,9.93e-05,53.2162,209.5844,88.3269,271.7837,7.8206e-05,9.57e-06,0.0,0 STARLINK-3243,1 51116U 22005N   23139.89248858  .00000957  00000-0  78206-4 0  9991,2 51116  53.2162 209.5844 0000993  88.3269 271.7837 15.08840958 74165,6917.877,95.437,540.429,539.056,0.0
51116.0,STARLINK-3243,PAYLOAD,2023-05-20 21:15:57,15.08845539,0.00011,53.2169,205.1241,89.2656,270.8462,0.00014014,1.944e-05,0.0,0 STARLINK-3243,1 51116U 22005N   23140.88608535  .00001944  00000-0  14014-3 0  9997,2 51116  53.2169 205.1241 0001100  89.2656 270.8462 15.08845539 74317,6917.863,95.437,540.489,538.967,0.0
51116.0,STARLINK-3243,PAYLOAD,2023-05-21 08:23:39,15.0884483,0.0001173,53.2176,203.0442,96.0101,264.1025,7.7413e-05,9.45e-06,0.0,0 STARLINK-3243,1 51116U 22005N   23141.34976711  .00000945  00000-0  77413-4 0  9996,2 51116  53.2176 203.0442 0001173  96.0101 264.1025 15.08844830 75490,6917.866,95.437,540.542,538.919,0.0
51116.0,STARLINK-3243,PAYLOAD,2023-05-21 13:09:49,15.08847037,0.0001266,53.2179,202.1519,94.5079,265.6058,0.00010949,1.455e-05,0.0,0 STARLINK-3243,1 51116U 22005N   23141.54848455  .00001455  00000-0  10949-3 0  9998,2 51116  53.2179 202.1519 0001266  94.5079 265.6058 15.08847037 74413,6917.859,95.437,540.6,538.848,0.0
51116.0,STARLINK-3243,PAYLOAD,2023-05-21 21:06:45,15.08838621,0.0001076,53.2162,200.6607,87.3883,272.7232,-6.7395e-06,-3.95e-06,0.0,0 STARLINK-3243,1 51116U 22005N   23141.87969154 -.00000395  00000-0 -67395-5 0  9997,2 51116  53.2162 200.6607 0001076  87.3883 272.7232 15.08838621 74465,6917.885,95.438,540.494,539.005,0.0
51116.0,STARLINK-3243,PAYLOAD,2023-05-22 13:00:37,15.08837297,0.0001107,53.2162,197.691,96.4449,263.667,-2.4738e-05,-6.81e-06,0.0,0 STARLINK-3243,1 51116U 22005N   23142.54209563 -.00000681  00000-0 -24738-4 0  9994,2 51116  53.2162 197.6910 0001107  96.4449 263.6670 15.08837297 74565,6917.889,95.438,540.519,538.988,0.0
51116.0,STARLINK-3243,PAYLOAD,2023-05-22 20:57:32,15.088365,0.0001085,53.2162,196.2039,96.0894,264.0222,-2.5507e-05,-6.94e-06,0.0,0 STARLINK-3243,1 51116U 22005N   23142.87329663 -.00000694  00000-0 -25507-4 0  9993,2 51116  53.2162 196.2039 0001085  96.0894 264.0222 15.08836500 74617,6917.891,95.438,540.507,539.005,0.0
51116.0,STARLINK-3243,PAYLOAD,2023-05-22 22:32:55,15.08835026,0.0001034,53.2158,195.9062,97.1202,262.9908,7.9286e-06,-1.62e-06,0.0,0 STARLINK-3243,1 51116U 22005N   23142.93953635 -.00000162  00000-0  79286-5 0  9995,2 51116  53.2158 195.9062 0001034  97.1202 262.9908 15.08835026 75737,6917.896,95.438,540.476,539.045,0.0
51116.0,STARLINK-3243,PAYLOAD,2023-05-23 09:40:37,15.08839832,0.0001006,53.2158,193.8239,99.4042,260.7064,1.363e-05,-7.1e-07,0.0,0 STARLINK-3243,1 51116U 22005N   23143.40321451 -.00000071  00000-0  13630-4 0  9992,2 51116  53.2158 193.8239 0001006  99.4042 260.7064 15.08839832 74698,6917.881,95.438,540.442,539.05,0.0
51116.0,STARLINK-3243,PAYLOAD,2023-05-24 03:09:52,15.08832733,0.0001009,53.2157,190.5529,103.1977,256.9128,0.00013456,1.854e-05,0.0,0 STARLINK-3243,1 51116U 22005N   23144.13185758  .00001854  00000-0  13456-3 0  9995,2 51116  53.2157 190.5529 0001009 103.1977 256.9128 15.08832733 75913,6917.903,95.438,540.466,539.07,0.0
51116.0,STARLINK-3243,PAYLOAD,2023-05-24 07:56:01,15.08834372,0.0001008,53.2157,189.6609,102.8041,257.3064,0.00014558,2.03e-05,0.0,0 STARLINK-3243,1 51116U 22005N   23144.33057775  .00002030  00000-0  14558-3 0  9995,2 51116  53.2157 189.6609 0001008 102.8041 257.3064 15.08834372 74833,6917.898,95.438,540.46,539.065,0.0
51116.0,STARLINK-3243,PAYLOAD,2023-05-26 02:51:26,15.08840429,0.0001028,53.216,181.6319,94.0585,266.0525,5.6693e-05,6.15e-06,0.0,0 STARLINK-3243,1 51116U 22005N   23146.11905795  .00000615  00000-0  56693-4 0  9991,2 51116  53.2160 181.6319 0001028  94.0585 266.0525 15.08840429 76217,6917.879,95.438,540.455,539.033,0.0
51116.0,STARLINK-3243,PAYLOAD,2023-05-26 12:23:45,15.08839953,0.0001021,53.2158,179.8475,97.5339,262.5769,4.0685e-05,3.6e-06,0.0,0 STARLINK-3243,1 51116U 22005N   23146.51649814  .00000360  00000-0  40685-4 0  9993,2 51116  53.2158 179.8475 0001021  97.5339 262.5769 15.08839953 75168,6917.881,95.438,540.452,539.039,0.0
51116.0,STARLINK-3243,PAYLOAD,2023-05-27 10:39:09,15.08838513,9.77e-05,53.2154,175.6848,86.9929,273.1175,8.4697e-06,-1.53e-06,0.0,0 STARLINK-3243,1 51116U 22005N   23147.44386021 -.00000153  00000-0  84697-5 0  9997,2 51116  53.2154 175.6848 0000977  86.9929 273.1175 15.08838513 76417,6917.885,95.438,540.426,539.074,0.0
51116.0,STARLINK-3243,PAYLOAD,2023-05-27 18:36:05,15.08837549,9.85e-05,53.2157,174.1983,87.7322,272.3783,1.0752e-05,-1.17e-06,0.0,0 STARLINK-3243,1 51116U 22005N   23147.77506106 -.00000117  00000-0  10752-4 0  9991,2 51116  53.2157 174.1983 0000985  87.7322 272.3783 15.08837549 75355,6917.888,95.438,540.434,539.071,0.0
51116.0,STARLINK-3243,PAYLOAD,2023-05-28 05:43:47,15.0883751,9.97e-05,53.2156,172.1167,88.6301,271.4805,4.2424e-05,3.87e-06,0.0,0 STARLINK-3243,1 51116U 22005N   23148.23874126  .00000387  00000-0  42424-4 0  9992,2 51116  53.2156 172.1167 0000997  88.6301 271.4805 15.08837510 75427,6917.888,95.438,540.443,539.063,0.0
51116.0,STARLINK-3243,PAYLOAD,2023-05-28 10:29:56,15.08838539,0.0001003,53.2158,171.2249,88.4642,271.6465,5.5074e-05,5.89e-06,0.0,0 STARLINK-3243,1 51116U 22005N   23148.43746057  .00000589  00000-0  55074-4 0  9994,2 51116  53.2158 171.2249 0001003  88.4642 271.6465 15.08838539 75454,6917.885,95.438,540.444,539.056,0.0
51116.0,STARLINK-3243,PAYLOAD,2023-05-29 00:48:24,15.08838694,9.97e-05,53.2157,168.5484,88.6924,271.4182,7.6302e-05,9.27e-06,0.0,0 STARLINK-3243,1 51116U 22005N   23149.03362056  .00000927  00000-0  76302-4 0  9997,2 51116  53.2157 168.5484 0000997  88.6924 271.4182 15.08838694 76658,6917.884,95.438,540.439,539.06,0.0
51116.0,STARLINK-3243,PAYLOAD,2023-05-29 10:20:43,15.08840644,0.0001008,53.2157,166.7642,86.6525,273.4583,7.8077e-05,9.55e-06,0.0,0 STARLINK-3243,1 51116U 22005N   23149.43105954  .00000955  00000-0  78077-4 0  9995,2 51116  53.2157 166.7642 0001008  86.6525 273.4583 15.08840644 75602,6917.878,95.438,540.441,539.046,0.0
51116.0,STARLINK-3243,PAYLOAD,2023-05-29 18:17:39,15.08836518,0.0001027,53.2157,165.2773,81.3236,278.7873,3.1698e-05,2.17e-06,0.0,0 STARLINK-3243,1 51116U 22005N   23149.76226400  .00000217  00000-0  31698-4 0  9990,2 51116  53.2157 165.2773 0001027  81.3236 278.7873 15.08836518 75653,6917.891,95.438,540.466,539.046,0.0
51116.0,STARLINK-3243,PAYLOAD,2023-05-29 23:03:49,15.08834546,0.0001053,53.2154,164.3851,82.6207,277.4905,4.2501e-06,-2.2e-06,0.0,0 STARLINK-3243,1 51116U 22005N   23149.96098662 -.00000220  00000-0  42501-5 0  9990,2 51116  53.2154 164.3851 0001053  82.6207 277.4905 15.08834546 76795,6917.897,95.438,540.491,539.034,0.0
51116.0,STARLINK-3243,PAYLOAD,2023-05-30 10:11:31,15.08834107,0.0001049,53.2155,162.3033,82.1459,277.9652,7.7287e-07,-2.75e-06,0.0,0 STARLINK-3243,1 51116U 22005N   23150.42466823 -.00000275  00000-0  77287-6 0  9991,2 51116  53.2155 162.3033 0001049  82.1459 277.9652 15.08834107 75757,6917.898,95.438,540.489,539.038,0.0
51116.0,STARLINK-3243,PAYLOAD,2023-05-31 10:02:18,15.08839631,0.0001037,53.2157,157.8429,80.7593,279.3517,2.5509e-05,1.18e-06,0.0,0 STARLINK-3243,1 51116U 22005N   23151.41826570  .00000118  00000-0  25509-4 0  9993,2 51116  53.2157 157.8429 0001037  80.7593 279.3517 15.08839631 77011,6917.882,95.438,540.464,539.029,0.0
51116.0,STARLINK-3243,PAYLOAD,2023-05-31 17:59:13,15.0884021,0.0001047,53.2159,156.3566,79.2959,280.8151,6.4481e-05,7.39e-06,0.0,0 STARLINK-3243,1 51116U 22005N   23151.74946432  .00000739  00000-0  64481-4 0  9990,2 51116  53.2159 156.3566 0001047  79.2959 280.8151 15.08840210 75956,6917.88,95.438,540.469,539.02,0.0
51116.0,STARLINK-3243,PAYLOAD,2023-06-01 06:42:18,15.08842398,0.0001047,53.2157,153.9778,77.2364,282.8745,0.00011921,1.61e-05,0.0,0 STARLINK-3243,1 51116U 22005N   23152.27938150  .00001610  00000-0  11921-3 0  9996,2 51116  53.2157 153.9778 0001047  77.2364 282.8745 15.08842398 76030,6917.873,95.437,540.462,539.014,0.0
51116.0,STARLINK-3243,PAYLOAD,2023-06-02 06:33:05,15.08842051,0.0001054,53.2156,149.5166,78.9815,281.1296,5.9748e-05,6.63e-06,0.0,0 STARLINK-3243,1 51116U 22005N   23153.27298259  .00000663  00000-0  59748-4 0  9993,2 51116  53.2156 149.5166 0001054  78.9815 281.1296 15.08842051 77296,6917.874,95.437,540.468,539.01,0.0
51116.0,STARLINK-3243,PAYLOAD,2023-06-03 03:13:06,15.08839093,0.0001094,53.2163,145.6531,73.814,286.2973,-6.8006e-06,-3.96e-06,0.0,0 STARLINK-3243,1 51116U 22005N   23154.13410682 -.00000396  00000-0 -68006-5 0  9998,2 51116  53.2163 145.6531 0001094  73.8140 286.2973 15.08839093 77421,6917.883,95.438,540.505,538.991,0.0
51116.0,STARLINK-3243,PAYLOAD,2023-06-03 09:34:39,15.08840974,0.0001091,53.216,144.4624,82.6783,277.4333,8.5627e-06,-1.52e-06,0.0,0 STARLINK-3243,1 51116U 22005N   23154.39906525 -.00000152  00000-0  85627-5 0  9999,2 51116  53.2160 144.4624 0001091  82.6783 277.4333 15.08840974 76359,6917.877,95.437,540.497,538.988,0.0
51116.0,STARLINK-3243,PAYLOAD,2023-06-03 15:56:11,15.08837724,0.0001087,53.216,143.2726,80.0468,280.0647,-1.0428e-05,-4.54e-06,0.0,0 STARLINK-3243,1 51116U 22005N   23154.66402776 -.00000454  00000-0 -10428-4 0  9990,2 51116  53.2160 143.2726 0001087  80.0468 280.0647 15.08837724 76397,6917.887,95.438,540.504,539.0,0.0
